OBJECT_NAME,OBJECT_ID,EPOCH,MEAN_MOTION,ECCENTRICITY,INCLINATION,RA_OF_ASC_NODE,ARG_OF_PERICENTER,MEAN_ANOMALY,EPHEMERIS_TYPE,CLASSIFICATION_TYPE,NORAD_CAT_ID,ELEMENT_SET_NO,REV_AT_EPOCH,BSTAR,MEAN_MOTION_DOT,MEAN_MOTION_DDOT
STARLINK-36886,2026-050J,2026-07-19T20:36:56.070720,15.34401940,.00013746,53.1612,10.3637,55.7092,304.4040,0,U,68175,999,2095,.29432993E-3,.9581E-4,0
STARLINK-36905,2026-050K,2026-07-19T21:25:24.661056,15.34404453,.00011827,53.1610,10.5740,93.4251,266.6887,0,U,68176,999,2095,.32426429E-3,.10597E-3,0
STARLINK-36668,2026-050L,2026-07-19T20:46:01.466400,15.34383172,.00011299,53.1606,10.4263,92.5964,267.5168,0,U,68177,999,2095,.42992237E-3,.14169E-3,0
STARLINK-36677,2026-050M,2026-07-19T17:53:35.090592,15.34401232,.00013976,53.1615,11.0715,87.7204,272.3958,0,U,68178,999,2093,.50158157E-3,.16609E-3,0
STARLINK-37052,2026-050N,2026-07-20T04:31:58.285056,15.34396796,.00010132,53.1614,8.8772,91.5933,268.5186,0,U,68179,999,2100,.23348279E-3,.752E-4,0
STARLINK-37035,2026-050P,2026-07-19T20:55:06.590784,15.34408559,.00010655,53.1606,10.4533,101.3225,258.7897,0,U,68180,999,2095,.41705313E-3,.13744E-3,0
STARLINK-37032,2026-050Q,2026-07-19T18:11:45.414528,15.34401123,.00009655,53.1584,11.1670,95.5296,264.5817,0,U,68181,999,2093,.1505622E-3,.4714E-4,0
STARLINK-37082,2026-050R,2026-07-19T21:22:23.000736,15.34402146,.00010309,53.1611,10.5715,85.6671,274.4449,0,U,68182,999,2095,.28793355E-3,.9365E-4,0
STARLINK-37102,2026-050S,2026-07-19T20:52:04.978848,15.34405787,.00008952,53.1590,10.4402,85.9088,274.2017,0,U,68183,999,2095,.35623127E-3,.11681E-3,0
STARLINK-36964,2026-050T,2026-07-19T18:05:42.259776,15.34394561,.00011231,53.1610,11.1373,80.1704,279.9426,0,U,68184,999,2093,.29864681E-3,.9725E-4,0
STARLINK-37061,2026-050U,2026-07-19T20:18:45.260352,15.34402614,.0000988,53.1600,10.2904,97.1548,262.9567,0,U,68185,999,2095,.60853147E-3,.20241E-3,0
STARLINK-37079,2026-050V,2026-07-20T04:22:53.139936,15.34400171,.00011066,53.1615,8.8484,100.2627,259.8501,0,U,68186,999,2100,.44197095E-3,.14586E-3,0
STARLINK-37006,2026-050W,2026-07-19T16:56:08.809728,15.34400620,.00007101,53.1578,11.5392,92.1264,267.9820,0,U,68187,999,2092,.46621858E-3,.15409E-3,0
STARLINK-36305,2026-050Y,2026-07-20T04:01:48.022752,15.34399279,.00008898,53.1583,9.4515,96.9041,263.2063,0,U,68189,999,2089,.31569981E-3,.10305E-3,0
STARLINK-37071,2026-050Z,2026-07-19T20:09:48.936672,15.34379912,.00011611,53.1591,10.9545,100.1614,259.9520,0,U,68190,999,2094,.1737249E-3,.5494E-4,0
STARLINK-37091,2026-050AA,2026-07-19T18:02:40.334208,15.34395222,.0000842,53.1597,11.1125,70.2293,289.8801,0,U,68191,999,2093,.50109597E-3,.16589E-3,0
STARLINK-37098,2026-050AB,2026-07-20T04:47:07.429920,15.34398352,.00014653,53.1617,8.9289,103.4176,256.6990,0,U,68192,999,2100,.2542054E-3,.8221E-4,0
STARLINK-37090,2026-050AC,2026-07-19T21:16:19.064928,15.34409780,.00010007,53.1603,10.5338,70.7510,289.3601,0,U,68193,999,2095,.4728167E-3,.15637E-3,0
STARLINK-37093,2026-050AD,2026-07-19T21:04:11.919936,15.34410094,.00011285,53.1600,10.4800,85.9037,274.2094,0,U,68194,999,2095,.44467852E-3,.14682E-3,0
STARLINK-37058,2026-050AE,2026-07-19T20:30:52.418304,15.34404739,.00009259,53.1599,10.3343,76.9983,283.1123,0,U,68195,999,1939,.31594137E-3,.10315E-3,0
STARLINK-36986,2026-053A,2026-07-19T21:22:27.008832,15.33446383,.00023855,97.2847,75.4813,89.9147,270.2369,0,U,68207,999,2047,.29407781E-3,.9432E-4,0
STARLINK-37009,2026-053B,2026-07-19T15:02:40.127712,15.33446731,.0001915,97.2851,75.2279,86.9685,273.1776,0,U,68208,999,2043,.26959E-3,.8639E-4,0
STARLINK-36948,2026-053C,2026-07-20T03:30:31.038048,15.33457315,.00017815,97.2870,75.7444,79.4548,280.6895,0,U,68209,999,2049,.39015154E-3,.12547E-3,0
STARLINK-37119,2026-053D,2026-07-20T03:26:34.418688,15.33460723,.00014012,97.2898,75.7452,80.7895,279.3506,0,U,68210,999,2051,.32103164E-3,.10308E-3,0
STARLINK-37120,2026-053E,2026-07-20T03:22:39.531648,15.33445493,.00014015,97.2859,75.7533,92.3521,267.7882,0,U,68211,999,2049,.28247514E-3,.9055E-4,0
STARLINK-37117,2026-053F,2026-07-20T03:18:44.476992,15.33447828,.00013237,97.2856,75.7580,102.5882,257.5509,0,U,68212,999,2051,.28479752E-3,.9131E-4,0
STARLINK-37116,2026-053G,2026-07-20T03:14:49.540704,15.33443624,.00014177,97.2862,75.7610,114.3589,245.7802,0,U,68213,999,2051,.26794793E-3,.8585E-4,0
STARLINK-35854,2026-053H,2026-07-20T02:31:46.540992,15.33459468,.0001671,97.2784,75.7984,106.1821,253.9605,0,U,68214,999,2049,.33731026E-3,.10835E-3,0
STARLINK-36272,2026-053J,2026-07-20T03:06:59.770080,15.33450009,.00014047,97.2864,75.7630,79.9262,280.2139,0,U,68215,999,2049,.33060266E-3,.10615E-3,0
STARLINK-37014,2026-053K,2026-07-20T03:03:07.031808,15.33433008,.00023146,97.2857,75.7739,79.4155,280.7349,0,U,68216,999,2051,.41322812E-3,.13285E-3,0
