STARLINK-36886          
1 68175U 26050J   26200.85898230  .00009581  00000+0  29433-3 0  9999
2 68175  53.1612  10.3637 0001374  55.7092 304.4040 15.34401940 20952
STARLINK-36905          
1 68176U 26050K   26200.89264654  .00010597  00000+0  32426-3 0  9996
2 68176  53.1610  10.5740 0001182  93.4251 266.6887 15.34404453 20951
STARLINK-36668          
1 68177U 26050L   26200.86529475  .00014169  00000+0  42992-3 0  9997
2 68177  53.1606  10.4263 0001129  92.5964 267.5168 15.34383172 20954
STARLINK-36677          
1 68178U 26050M   26200.74554503  .00016609  00000+0  50158-3 0  9999
2 68178  53.1615  11.0715 0001397  87.7204 272.3958 15.34401232 20931
STARLINK-37052          
1 68179U 26050N   26201.18886904  .00007520  00000+0  23348-3 0  9995
2 68179  53.1614   8.8772 0001013  91.5933 268.5186 15.34396796 21002
STARLINK-37035          
1 68180U 26050P   26200.87160406  .00013744  00000+0  41705-3 0  9996
2 68180  53.1606  10.4533 0001065 101.3225 258.7897 15.34408559 20954
STARLINK-37032          
1 68181U 26050Q   26200.75816452  .00004714  00000+0  15056-3 0  9990
2 68181  53.1584  11.1670 0000965  95.5296 264.5817 15.34401123 20935
STARLINK-37082          
1 68182U 26050R   26200.89054399  .00009365  00000+0  28793-3 0  9999
2 68182  53.1611  10.5715 0001030  85.6671 274.4449 15.34402146 20950
STARLINK-37102          
1 68183U 26050S   26200.86950207  .00011681  00000+0  35623-3 0  9994
2 68183  53.1590  10.4402 0000895  85.9088 274.2017 15.34405787 20955
STARLINK-36964          
1 68184U 26050T   26200.75396134  .00009725  00000+0  29865-3 0  9993
2 68184  53.1610  11.1373 0001123  80.1704 279.9426 15.34394561 20932
STARLINK-37061          
1 68185U 26050U   26200.84635718  .00020241  00000+0  60853-3 0  9996
2 68185  53.1600  10.2904 0000988  97.1548 262.9567 15.34402614 20953
STARLINK-37079          
1 68186U 26050V   26201.18255949  .00014586  00000+0  44197-3 0  9997
2 68186  53.1615   8.8484 0001106 100.2627 259.8501 15.34400171 21009
STARLINK-37006          
1 68187U 26050W   26200.70565752  .00015409  00000+0  46622-3 0  9991
2 68187  53.1578  11.5392 0000710  92.1264 267.9820 15.34400620 20926
STARLINK-36305          
1 68189U 26050Y   26201.16791693  .00010305  00000+0  31570-3 0  9995
2 68189  53.1583   9.4515 0000889  96.9041 263.2063 15.34399279 20890
STARLINK-37071          
1 68190U 26050Z   26200.84014973  .00005494  00000+0  17372-3 0  9997
2 68190  53.1591  10.9545 0001161 100.1614 259.9520 15.34379912 20947
STARLINK-37091          
1 68191U 26050AA  26200.75185572  .00016589  00000+0  50110-3 0  9996
2 68191  53.1597  11.1125 0000842  70.2293 289.8801 15.34395222 20931
STARLINK-37098          
1 68192U 26050AB  26201.19939155  .00008221  00000+0  25421-3 0  9991
2 68192  53.1617   8.9289 0001465 103.4176 256.6990 15.34398352 21008
STARLINK-37090          
1 68193U 26050AC  26200.88633177  .00015637  00000+0  47282-3 0  9990
2 68193  53.1603  10.5338 0001000  70.7510 289.3601 15.34409780 20954
STARLINK-37093          
1 68194U 26050AD  26200.87791574  .00014682  00000+0  44468-3 0  9998
2 68194  53.1600  10.4800 0001128  85.9037 274.2094 15.34410094 20957
STARLINK-37058          
1 68195U 26050AE  26200.85477336  .00010315  00000+0  31594-3 0  9999
2 68195  53.1599  10.3343 0000925  76.9983 283.1123 15.34404739 19397
STARLINK-36986          
1 68207U 26053A   26200.89059038  .00009432  00000+0  29408-3 0  9994
2 68207  97.2847  75.4813 0002385  89.9147 270.2369 15.33446383 20478
STARLINK-37009          
1 68208U 26053B   26200.62685333  .00008639  00000+0  26959-3 0  9995
2 68208  97.2851  75.2279 0001915  86.9685 273.1776 15.33446731 20437
STARLINK-36948          
1 68209U 26053C   26201.14619257  .00012547  00000+0  39015-3 0  9996
2 68209  97.2870  75.7444 0001781  79.4548 280.6895 15.33457315 20495
STARLINK-37119          
1 68210U 26053D   26201.14345392  .00010308  00000+0  32103-3 0  9998
2 68210  97.2898  75.7452 0001401  80.7895 279.3506 15.33460723 20519
STARLINK-37120          
1 68211U 26053E   26201.14073532  .00009055  00000+0  28248-3 0  9995
2 68211  97.2859  75.7533 0001401  92.3521 267.7882 15.33445493 20494
STARLINK-37117          
1 68212U 26053F   26201.13801478  .00009131  00000+0  28480-3 0  9996
2 68212  97.2856  75.7580 0001323 102.5882 257.5509 15.33447828 20511
STARLINK-37116          
1 68213U 26053G   26201.13529561  .00008585  00000+0  26795-3 0  9996
2 68213  97.2862  75.7610 0001417 114.3589 245.7802 15.33443624 20517
STARLINK-35854          
1 68214U 26053H   26201.10539978  .00010835  00000+0  33731-3 0  9996
2 68214  97.2784  75.7984 0001671 106.1821 253.9605 15.33459468 20497
STARLINK-36272          
1 68215U 26053J   26201.12985845  .00010615  00000+0  33060-3 0  9998
2 68215  97.2864  75.7630 0001404  79.9262 280.2139 15.33450009 20492
STARLINK-37014          
1 68216U 26053K   26201.12716472  .00013285  00000+0  41323-3 0  9994
2 68216  97.2857  75.7739 0002314  79.4155 280.7349 15.33433008 20513
